[{"OBJECT_NAME":"STARLINK-31746","OBJECT_ID":"2024-080N","EPOCH":"2026-03-09T22:19:20.461152","MEAN_MOTION":15.27559098,"ECCENTRICITY":8.792e-5,"INCLINATION":42.999,"RA_OF_ASC_NODE":40.4779,"ARG_OF_PERICENTER":294.1937,"MEAN_ANOMALY":65.8823,"EPHEMERIS_TYPE":0,"CLASSIFICATION_TYPE":"U","NORAD_CAT_ID":59613,"ELEMENT_SET_NO":999,"REV_AT_EPOCH":10452,"BSTAR":0.00023174488,"MEAN_MOTION_DOT":6.116e-5,"MEAN_MOTION_DDOT":0},{"OBJECT_NAME":"OBJECT A","OBJECT_ID":"2025-013A","EPOCH":"2026-03-09T23:29:31.895232","MEAN_MOTION":15.29260221,"ECCENTRICITY":0.0010321,"INCLINATION":97.6364,"RA_OF_ASC_NODE":244.5149,"ARG_OF_PERICENTER":282.3775,"MEAN_ANOMALY":77.6309,"EPHEMERIS_TYPE":0,"CLASSIFICATION_TYPE":"U","NORAD_CAT_ID":62729,"ELEMENT_SET_NO":999,"REV_AT_EPOCH":6276,"BSTAR":0.0013206527,"MEAN_MOTION_DOT":0.00037616,"MEAN_MOTION_DDOT":0}]
